start=new Date('2022-08-10T00:00:00.000Z').valueOf();
sats=[{"TIME_SYSTEM":"UTC","MEAN_MOTION_DOT":"0.00004158","RCS_SIZE":"LARGE","SITE":"AFETR","INCLINATION":"53.0569","REV_AT_EPOCH":"9514","NORAD_CAT_ID":"47177","TLE_LINE1":"1 47177U 20088BH  22221.80790153  .00004158  00000-0  29798-3 0  9992","EPOCH":"2022-08-09T19:23:22.692192","ELEMENT_SET_NO":"999","LAUNCH_DATE":"2020-11-25","TLE_LINE2":"2 47177  53.0569  42.9394 0001642  98.5872 261.5303 15.06386069 95142","SEMIMAJOR_AXIS":"6925.391","OBJECT_NAME":"STARLINK-1907","MEAN_ELEMENT_THEORY":"SGP4","MEAN_MOTION":"15.06386069","ARG_OF_PERICENTER":"98.5872","OBJECT_TYPE":"PAYLOAD","DECAY_DATE":null,"PERIOD":"95.593","BSTAR":"0.00029798000000","MEAN_ANOMALY":"261.5303","MEAN_MOTION_DDOT":"0.0000000000000","APOAPSIS":"548.393","REF_FRAME":"TEME","PERIAPSIS":"546.119","RA_OF_ASC_NODE":"42.9394","CENTER_NAME":"EARTH","ECCENTRICITY":"0.00016420","OBJECT_ID":"2020-088BH","COUNTRY_CODE":"US","EPHEMERIS_TYPE":"0","GP_ID":"209905372","CLASSIFICATION_TYPE":"U","FILE":"3533027"},{"DECAY_DATE":null,"OBJECT_TYPE":"PAYLOAD","PERIOD":"95.592","MEAN_MOTION_DDOT":"0.0000000000000","MEAN_ANOMALY":"260.1427","BSTAR":"0.00009727800000","PERIAPSIS":"546.258","REF_FRAME":"TEME","APOAPSIS":"548.154","RA_OF_ASC_NODE":"53.3156","ECCENTRICITY":"0.00013690","CENTER_NAME":"EARTH","GP_ID":"209928960","CLASSIFICATION_TYPE":"U","COUNTRY_CODE":"US","OBJECT_ID":"2020-088BJ","EPHEMERIS_TYPE":"0","FILE":"3533123","MEAN_MOTION_DOT":"0.00001168","TIME_SYSTEM":"UTC","SITE":"AFETR","RCS_SIZE":"LARGE","REV_AT_EPOCH":"9469","INCLINATION":"53.0555","EPOCH":"2022-08-09T17:19:57.688608","NORAD_CAT_ID":"47178","TLE_LINE1":"1 47178U 20088BJ  22221.72219547  .00001168  00000-0  97278-4 0  9994","TLE_LINE2":"2 47178  53.0555  53.3156 0001369  99.9717 260.1427 15.06402468 94692","LAUNCH_DATE":"2020-11-25","ELEMENT_SET_NO":"999","SEMIMAJOR_AXIS":"6925.341","ARG_OF_PERICENTER":"99.9717","MEAN_MOTION":"15.06402468","MEAN_ELEMENT_THEORY":"SGP4","OBJECT_NAME":"STARLINK-1912"},{"SITE":"AFETR","RCS_SIZE":"LARGE","REV_AT_EPOCH":"9444","INCLINATION":"53.0564","MEAN_MOTION_DOT":"0.00003062","TIME_SYSTEM":"UTC","SEMIMAJOR_AXIS":"6925.304","ARG_OF_PERICENTER":"97.1923","OBJECT_NAME":"STARLINK-1913","MEAN_MOTION":"15.06414614","MEAN_ELEMENT_THEORY":"SGP4","NORAD_CAT_ID":"47179","TLE_LINE1":"1 47179U 20088BK  22220.98039374  .00003062  00000-0  22428-3 0  9999","EPOCH":"2022-08-08T23:31:46.019136","ELEMENT_SET_NO":"999","LAUNCH_DATE":"2020-11-25","TLE_LINE2":"2 47179  53.0564  66.6491 0001105  97.1923 262.9192 15.06414614 94447","MEAN_MOTION_DDOT":"0.0000000000000","BSTAR":"0.00022428000000","MEAN_ANOMALY":"262.9192","PERIAPSIS":"546.404","APOAPSIS":"547.934","REF_FRAME":"TEME","DECAY_DATE":null,"OBJECT_TYPE":"PAYLOAD","PERIOD":"95.591","GP_ID":"209897995","CLASSIFICATION_TYPE":"U","COUNTRY_CODE":"US","EPHEMERIS_TYPE":"0","OBJECT_ID":"2020-088BK","FILE":"3532882","RA_OF_ASC_NODE":"66.6491","CENTER_NAME":"EARTH","ECCENTRICITY":"0.00011050"},{"MEAN_MOTION_DOT":"-0.00000069","TIME_SYSTEM":"UTC","REV_AT_EPOCH":"9497","INCLINATION":"53.0554","SITE":"AFETR","RCS_SIZE":"LARGE","TLE_LINE2":"2 47181  53.0554  33.2048 0001250  99.5253 260.5878 15.06392154 94977","LAUNCH_DATE":"2020-11-25","ELEMENT_SET_NO":"999","EPOCH":"2022-08-09T17:59:46.497408","TLE_LINE1":"1 47181U 20088BM  22221.74984372 -.00000069  00000-0  14235-4 0  9997","NORAD_CAT_ID":"47181","ARG_OF_PERICENTER":"99.5253","MEAN_MOTION":"15.06392154","MEAN_ELEMENT_THEORY":"SGP4","OBJECT_NAME":"STARLINK-1927","SEMIMAJOR_AXIS":"6925.373","PERIOD":"95.593","DECAY_DATE":null,"OBJECT_TYPE":"PAYLOAD","PERIAPSIS":"546.372","REF_FRAME":"TEME","APOAPSIS":"548.103","MEAN_MOTION_DDOT":"0.0000000000000","MEAN_ANOMALY":"260.5878","BSTAR":"0.00001423500000","ECCENTRICITY":"0.00012500","CENTER_NAME":"EARTH","RA_OF_ASC_NODE":"33.2048","FILE":"3533123","GP_ID":"209928464","CLASSIFICATION_TYPE":"U","COUNTRY_CODE":"US","EPHEMERIS_TYPE":"0","OBJECT_ID":"2020-088BM"},{"CENTER_NAME":"EARTH","ECCENTRICITY":"0.00115240","RA_OF_ASC_NODE":"7.8770","FILE":"3533123","CLASSIFICATION_TYPE":"U","GP_ID":"209929478","OBJECT_ID":"2021-005A","COUNTRY_CODE":"US","EPHEMERIS_TYPE":"0","PERIOD":"91.060","DECAY_DATE":null,"OBJECT_TYPE":"PAYLOAD","PERIAPSIS":"318.819","APOAPSIS":"334.272","REF_FRAME":"TEME","MEAN_MOTION_DDOT":"0.0000000000000","BSTAR":"0.00024560000000","MEAN_ANOMALY":"18.0011","ELEMENT_SET_NO":"999","LAUNCH_DATE":"2021-01-20","TLE_LINE2":"2 47349  53.0267   7.8770 0011524 342.0602  18.0011 15.81377824 88217","TLE_LINE1":"1 47349U 21005A   22221.76147479  .00049417  00000-0  24560-3 0  9994","NORAD_CAT_ID":"47349","EPOCH":"2022-08-09T18:16:31.421856","ARG_OF_PERICENTER":"342.0602","OBJECT_NAME":"STARLINK-1952","MEAN_MOTION":"15.81377824","MEAN_ELEMENT_THEORY":"SGP4","SEMIMAJOR_AXIS":"6704.680","MEAN_MOTION_DOT":"0.00049417","TIME_SYSTEM":"UTC","INCLINATION":"53.0267","REV_AT_EPOCH":"8821","SITE":"AFETR","RCS_SIZE":"LARGE"},{"INCLINATION":"53.0527","REV_AT_EPOCH":"8584","SITE":"AFETR","RCS_SIZE":"LARGE","MEAN_MOTION_DOT":"0.00000235","TIME_SYSTEM":"UTC","ARG_OF_PERICENTER":"61.1207","MEAN_ELEMENT_THEORY":"SGP4","MEAN_MOTION":"15.06405226","OBJECT_NAME":"STARLINK-2011","SEMIMAJOR_AXIS":"6925.333","TLE_LINE2":"2 47350  53.0527 175.1087 0002063  61.1207 298.9989 15.06405226 85840","LAUNCH_DATE":"2021-01-20","ELEMENT_SET_NO":"999","EPOCH":"2022-08-09T07:46:43.185216","TLE_LINE1":"1 47350U 21005B   22221.32411094  .00000235  00000-0  34706-4 0  9994","NORAD_CAT_ID":"47350","PERIAPSIS":"545.769","REF_FRAME":"TEME","APOAPSIS":"548.626","MEAN_MOTION_DDOT":"0.0000000000000","MEAN_ANOMALY":"298.9989","BSTAR":"0.00003470600000","PERIOD":"95.592","DECAY_DATE":null,"OBJECT_TYPE":"PAYLOAD","FILE":"3532882","GP_ID":"209897513","CLASSIFICATION_TYPE":"U","EPHEMERIS_TYPE":"0","COUNTRY_CODE":"US","OBJECT_ID":"2021-005B","ECCENTRICITY":"0.00020630","CENTER_NAME":"EARTH","RA_OF_ASC_NODE":"175.1087"},{"CENTER_NAME":"EARTH","ECCENTRICITY":"0.00013950","RA_OF_ASC_NODE":"133.7652","FILE":"3533123","COUNTRY_CODE":"US","OBJECT_ID":"2021-005C","EPHEMERIS_TYPE":"0","CLASSIFICATION_TYPE":"U","GP_ID":"209927981","PERIOD":"95.592","OBJECT_TYPE":"PAYLOAD","DECAY_DATE":null,"APOAPSIS":"548.185","REF_FRAME":"TEME","PERIAPSIS":"546.252","BSTAR":"-0.00033504000000","MEAN_ANOMALY":"279.5955","MEAN_MOTION_DDOT":"0.0000000000000","ELEMENT_SET_NO":"999","LAUNCH_DATE":"2021-01-20","TLE_LINE2":"2 47351  53.0539 133.7652 0001395  80.5191 279.5955 15.06398374 86446","TLE_LINE1":"1 47351U 21005C   22221.61803583 -.00005268  00000-0 -33504-3 0  9992","NORAD_CAT_ID":"47351","EPOCH":"2022-08-09T14:49:58.295712","OBJECT_NAME":"STARLINK-2017","MEAN_ELEMENT_THEORY":"SGP4","MEAN_MOTION":"15.06398374","ARG_OF_PERICENTER":"80.5191","SEMIMAJOR_AXIS":"6925.354","TIME_SYSTEM":"UTC","MEAN_MOTION_DOT":"-0.00005268","INCLINATION":"53.0539","REV_AT_EPOCH":"8644","RCS_SIZE":"LARGE","SITE":"AFETR"},{"SEMIMAJOR_AXIS":"6925.318","OBJECT_NAME":"STARLINK-2034","MEAN_MOTION":"15.06410054","MEAN_ELEMENT_THEORY":"SGP4","ARG_OF_PERICENTER":"64.7552","NORAD_CAT_ID":"47352","TLE_LINE1":"1 47352U 21005D   22221.23932962  .00002352  00000-0  17671-3 0  9991","EPOCH":"2022-08-09T05:44:38.079168","LAUNCH_DATE":"2021-01-20","ELEMENT_SET_NO":"999","TLE_LINE2":"2 47352  53.0530 175.4913 0001861  64.7552 295.3630 15.06410054 85821","RCS_SIZE":"LARGE","SITE":"AFETR","INCLINATION":"53.0530","REV_AT_EPOCH":"8582","TIME_SYSTEM":"UTC","MEAN_MOTION_DOT":"0.00002352","COUNTRY_CODE":"US","EPHEMERIS_TYPE":"0","OBJECT_ID":"2021-005D","CLASSIFICATION_TYPE":"U","GP_ID":"209898514","FILE":"3532882","RA_OF_ASC_NODE":"175.4913","CENTER_NAME":"EARTH","ECCENTRICITY":"0.00018610","BSTAR":"0.00017671000000","MEAN_ANOMALY":"295.3630","MEAN_MOTION_DDOT":"0.0000000000000","APOAPSIS":"548.472","REF_FRAME":"TEME","PERIAPSIS":"545.894","OBJECT_TYPE":"PAYLOAD","DECAY_DATE":null,"PERIOD":"95.592"},{"RA_OF_ASC_NODE":"120.9882","ECCENTRICITY":"0.00020490","CENTER_NAME":"EARTH","COUNTRY_CODE":"US","EPHEMERIS_TYPE":"0","OBJECT_ID":"2021-005E","GP_ID":"209899250","CLASSIFICATION_TYPE":"U","FILE":"3532882","OBJECT_TYPE":"PAYLOAD","DECAY_DATE":null,"PERIOD":"95.591","MEAN_ANOMALY":"282.4516","BSTAR":"0.00009602400000","MEAN_MOTION_DDOT":"0.0000000000000","REF_FRAME":"TEME","APOAPSIS":"548.586","PERIAPSIS":"545.748","EPOCH":"2022-08-09T03:04:44.173056","NORAD_CAT_ID":"47353","TLE_LINE1":"1 47353U 21005E   22221.12828904  .00001149  00000-0  96024-4 0  9993","TLE_LINE2":"2 47353  53.0554 120.9882 0002049  77.6702 282.4516 15.06415030 86580","LAUNCH_DATE":"2021-01-20","ELEMENT_SET_NO":"999","SEMIMAJOR_AXIS":"6925.302","MEAN_MOTION":"15.06415030","MEAN_ELEMENT_THEORY":"SGP4","OBJECT_NAME":"STARLINK-2045","ARG_OF_PERICENTER":"77.6702","TIME_SYSTEM":"UTC","MEAN_MOTION_DOT":"0.00001149","RCS_SIZE":"LARGE","SITE":"AFETR","REV_AT_EPOCH":"8658","INCLINATION":"53.0554"},{"TIME_SYSTEM":"UTC","MEAN_MOTION_DOT":"-0.00000096","RCS_SIZE":"LARGE","SITE":"AFETR","INCLINATION":"53.0544","REV_AT_EPOCH":"8639","TLE_LINE1":"1 47354U 21005F   22221.73831958 -.00000096  00000-0  12487-4 0  9996","NORAD_CAT_ID":"47354","EPOCH":"2022-08-09T17:43:10.811712","ELEMENT_SET_NO":"999","LAUNCH_DATE":"2021-01-20","TLE_LINE2":"2 47354  53.0544 138.2355 0001985  75.6537 284.4672 15.06395569 86397","SEMIMAJOR_AXIS":"6925.362","OBJECT_NAME":"STARLINK-2046","MEAN_MOTION":"15.06395569","MEAN_ELEMENT_THEORY":"SGP4","ARG_OF_PERICENTER":"75.6537","OBJECT_TYPE":"PAYLOAD","DECAY_DATE":null,"PERIOD":"95.592","BSTAR":"0.00001248700000","MEAN_ANOMALY":"284.4672","MEAN_MOTION_DDOT":"0.0000000000000","APOAPSIS":"548.602","REF_FRAME":"TEME","PERIAPSIS":"545.852","RA_OF_ASC_NODE":"138.2355","CENTER_NAME":"EARTH","ECCENTRICITY":"0.00019850","COUNTRY_CODE":"US","OBJECT_ID":"2021-005F","EPHEMERIS_TYPE":"0","GP_ID":"209928232","CLASSIFICATION_TYPE":"U","FILE":"3533123"}];
